{
  "type": "FeatureCollection",
  "features": [
    {
      "type": "Feature",
      "properties": {
        "norad_id": 66428,
        "name": "STARLINK-35610",
        "group": "last-30-days",
        "lat": 22.769960964882017,
        "lon": -110.72791091599497,
        "alt_km": 412.1476631692385,
        "timestamp": "2025-12-04T09:47:36.301600+00:00",
        "meta_object_name": "STARLINK-35610",
        "meta_object_id": "2025-259G",
        "meta_epoch": "2025-12-03T22:00:03.000096",
        "meta_mean_motion": 15.50604237,
        "meta_eccentricity": 0.00015881,
        "meta_inclination": 43.0003,
        "meta_ra_of_asc_node": 98.9187,
        "meta_arg_of_pericenter": 274.5334,
        "meta_mean_anomaly": 4.7081,
        "meta_ephemeris_type": 0,
        "meta_classification_type": "U",
        "meta_norad_cat_id": 66428,
        "meta_element_set_no": 999,
        "meta_rev_at_epoch": 486,
        "meta_bstar": -0.0003639439,
        "meta_mean_motion_dot": -0.00021653,
        "meta_mean_motion_ddot": 0,
        "tle_line1": "1 66428U 25259G   25337.91670139 -.00021653  00000+0 -36394-3 0  9991",
        "tle_line2": "2 66428  43.0003  98.9187 0001588 274.5334   4.7081 15.50604237  4861"
      },
      "geometry": {
        "type": "Point",
        "coordinates": [
          -110.72791091599497,
          22.769960964882017
        ]
      }
    },
    {
      "type": "Feature",
      "properties": {
        "norad_id": 66429,
        "name": "STARLINK-35533",
        "group": "last-30-days",
        "lat": 21.613948161990432,
        "lon": -109.12395685960065,
        "alt_km": 412.5266132900888,
        "timestamp": "2025-12-04T09:47:36.301611+00:00",
        "meta_object_name": "STARLINK-35533",
        "meta_object_id": "2025-259H",
        "meta_epoch": "2025-12-03T22:00:03.000096",
        "meta_mean_motion": 15.50657211,
        "meta_eccentricity": 0.00015984,
        "meta_inclination": 43.0003,
        "meta_ra_of_asc_node": 98.913,
        "meta_arg_of_pericenter": 272.4408,
        "meta_mean_anomaly": 8.7091,
        "meta_ephemeris_type": 0,
        "meta_classification_type": "U",
        "meta_norad_cat_id": 66429,
        "meta_element_set_no": 999,
        "meta_rev_at_epoch": 486,
        "meta_bstar": -0.0026510189,
        "meta_mean_motion_dot": -0.00153288,
        "meta_mean_motion_ddot": 0,
        "tle_line1": "1 66429U 25259H   25337.91670139 -.00153288  00000+0 -26510-2 0  9990",
        "tle_line2": "2 66429  43.0003  98.9130 0001598 272.4408   8.7091 15.50657211  4865"
      },
      "geometry": {
        "type": "Point",
        "coordinates": [
          -109.12395685960065,
          21.613948161990432
        ]
      }
    },
    {
      "type": "Feature",
      "properties": {
        "norad_id": 66430,
        "name": "STARLINK-35470",
        "group": "last-30-days",
        "lat": 20.42707408327962,
        "lon": -107.52300234414211,
        "alt_km": 412.6099473661707,
        "timestamp": "2025-12-04T09:47:36.301621+00:00",
        "meta_object_name": "STARLINK-35470",
        "meta_object_id": "2025-259J",
        "meta_epoch": "2025-12-03T22:00:03.000096",
        "meta_mean_motion": 15.50637136,
        "meta_eccentricity": 0.00015948,
        "meta_inclination": 43.0001,
        "meta_ra_of_asc_node": 98.9094,
        "meta_arg_of_pericenter": 270.8187,
        "meta_mean_anomaly": 12.2451,
        "meta_ephemeris_type": 0,
        "meta_classification_type": "U",
        "meta_norad_cat_id": 66430,
        "meta_element_set_no": 999,
        "meta_rev_at_epoch": 486,
        "meta_bstar": -0.0020318085,
        "meta_mean_motion_dot": -0.00118005,
        "meta_mean_motion_ddot": 0,
        "tle_line1": "1 66430U 25259J   25337.91670139 -.00118005  00000+0 -20318-2 0  9990",
        "tle_line2": "2 66430  43.0001  98.9094 0001594 270.8187  12.2451 15.50637136  4860"
      },
      "geometry": {
        "type": "Point",
        "coordinates": [
          -107.52300234414211,
          20.42707408327962
        ]
      }
    },
    {
      "type": "Feature",
      "properties": {
        "norad_id": 66431,
        "name": "STARLINK-35439",
        "group": "last-30-days",
        "lat": 19.217217712943537,
        "lon": -105.93757596251032,
        "alt_km": 412.77292029882756,
        "timestamp": "2025-12-04T09:47:36.301631+00:00",
        "meta_object_name": "STARLINK-35439",
        "meta_object_id": "2025-259K",
        "meta_epoch": "2025-12-03T22:00:03.000096",
        "meta_mean_motion": 15.50666097,
        "meta_eccentricity": 0.00016506,
        "meta_inclination": 43.0003,
        "meta_ra_of_asc_node": 98.9036,
        "meta_arg_of_pericenter": 265.3994,
        "meta_mean_anomaly": 19.5847,
        "meta_ephemeris_type": 0,
        "meta_classification_type": "U",
        "meta_norad_cat_id": 66431,
        "meta_element_set_no": 999,
        "meta_rev_at_epoch": 486,
        "meta_bstar": -0.0029431273,
        "meta_mean_motion_dot": -0.0016984,
        "meta_mean_motion_ddot": 0,
        "tle_line1": "1 66431U 25259K   25337.91670139 -.00169840  00000+0 -29431-2 0  9999",
        "tle_line2": "2 66431  43.0003  98.9036 0001650 265.3994  19.5847 15.50666097  4864"
      },
      "geometry": {
        "type": "Point",
        "coordinates": [
          -105.93757596251032,
          19.217217712943537
        ]
      }
    },
    {
      "type": "Feature",
      "properties": {
        "norad_id": 66432,
        "name": "STARLINK-35446",
        "group": "last-30-days",
        "lat": 18.016433671367516,
        "lon": -104.40545061322605,
        "alt_km": 412.866540673067,
        "timestamp": "2025-12-04T09:47:36.301644+00:00",
        "meta_object_name": "STARLINK-35446",
        "meta_object_id": "2025-259L",
        "meta_epoch": "2025-12-04T04:00:03.000096",
        "meta_mean_motion": 15.50660234,
        "meta_eccentricity": 0.0001645,
        "meta_inclination": 43.0005,
        "meta_ra_of_asc_node": 97.434,
        "meta_arg_of_pericenter": 289.3926,
        "meta_mean_anomaly": 314.614,
        "meta_ephemeris_type": 0,
        "meta_classification_type": "U",
        "meta_norad_cat_id": 66432,
        "meta_element_set_no": 999,
        "meta_rev_at_epoch": 490,
        "meta_bstar": -0.00097615,
        "meta_mean_motion_dot": -0.00057356,
        "meta_mean_motion_ddot": 0,
        "tle_line1": "1 66432U 25259L   25338.16670139 -.00057356  00000+0 -97615-3 0  9996",
        "tle_line2": "2 66432  43.0005  97.4340 0001645 289.3926 314.6140 15.50660234  4901"
      },
      "geometry": {
        "type": "Point",
        "coordinates": [
          -104.40545061322605,
          18.016433671367516
        ]
      }
    },
    {
      "type": "Feature",
      "properties": {
        "norad_id": 66433,
        "name": "STARLINK-35457",
        "group": "last-30-days",
        "lat": 16.740153700838146,
        "lon": -102.81204495013543,
        "alt_km": 412.7847313371658,
        "timestamp": "2025-12-04T09:47:36.301659+00:00",
        "meta_object_name": "STARLINK-35457",
        "meta_object_id": "2025-259M",
        "meta_epoch": "2025-12-04T04:00:03.000096",
        "meta_mean_motion": 15.50624665,
        "meta_eccentricity": 0.000149,
        "meta_inclination": 43.0004,
        "meta_ra_of_asc_node": 97.4307,
        "meta_arg_of_pericenter": 262.575,
        "meta_mean_anomaly": 343.4684,
        "meta_ephemeris_type": 0,
        "meta_classification_type": "U",
        "meta_norad_cat_id": 66433,
        "meta_element_set_no": 999,
        "meta_rev_at_epoch": 490,
        "meta_bstar": -0.0022862,
        "meta_mean_motion_dot": -0.00132432,
        "meta_mean_motion_ddot": 0,
        "tle_line1": "1 66433U 25259M   25338.16670139 -.00132432  00000+0 -22862-2 0  9997",
        "tle_line2": "2 66433  43.0004  97.4307 0001490 262.5750 343.4684 15.50624665  4901"
      },
      "geometry": {
        "type": "Point",
        "coordinates": [
          -102.81204495013543,
          16.740153700838146
        ]
      }
    },
    {
      "type": "Feature",
      "properties": {
        "norad_id": 66434,
        "name": "STARLINK-35389",
        "group": "last-30-days",
        "lat": 15.492188366762385,
        "lon": -101.28969434588568,
        "alt_km": 412.8790407186789,
        "timestamp": "2025-12-04T09:47:36.301670+00:00",
        "meta_object_name": "STARLINK-35389",
        "meta_object_id": "2025-259N",
        "meta_epoch": "2025-12-04T04:00:03.000096",
        "meta_mean_motion": 15.50640193,
        "meta_eccentricity": 0.0001544,
        "meta_inclination": 43.0005,
        "meta_ra_of_asc_node": 97.4266,
        "meta_arg_of_pericenter": 258.2546,
        "meta_mean_anomaly": 349.707,
        "meta_ephemeris_type": 0,
        "meta_classification_type": "U",
        "meta_norad_cat_id": 66434,
        "meta_element_set_no": 999,
        "meta_rev_at_epoch": 490,
        "meta_bstar": -0.002799,
        "meta_mean_motion_dot": -0.00161558,
        "meta_mean_motion_ddot": 0,
        "tle_line1": "1 66434U 25259N   25338.16670139 -.00161558  00000+0 -27990-2 0  9996",
        "tle_line2": "2 66434  43.0005  97.4266 0001544 258.2546 349.7070 15.50640193  4904"
      },
      "geometry": {
        "type": "Point",
        "coordinates": [
          -101.28969434588568,
          15.492188366762385
        ]
      }
    }
  ]
}